{"fetched_at":"2026-07-13T07:48:28.639Z","source":"https://celestrak.org/NORAD/elements/gp.php?NAME=JILIN&FORMAT=JSON","constellation":"jilin-1-gaofen","records":[{"OBJECT_NAME":"JILIN-1 GAOFEN 3A","OBJECT_ID":"2019-032C","EPOCH":"2026-07-12T12:00:17.623872","CLASSIFICATION_TYPE":"U","MEAN_MOTION":15.3315593,"ECCENTRICITY":0.00046919,"INCLINATION":44.9729,"RA_OF_ASC_NODE":217.5664,"ARG_OF_PERICENTER":84.2828,"MEAN_ANOMALY":275.8592,"EPHEMERIS_TYPE":0,"NORAD_CAT_ID":44312,"ELEMENT_SET_NO":999,"REV_AT_EPOCH":39172,"BSTAR":0.00017832924,"MEAN_MOTION_DOT":0.00005515,"MEAN_MOTION_DDOT":0},{"OBJECT_NAME":"JILIN-1 GAOFEN 2A","OBJECT_ID":"2019-075A","EPOCH":"2026-07-12T19:21:59.382720","CLASSIFICATION_TYPE":"U","MEAN_MOTION":15.39974702,"ECCENTRICITY":0.0005419,"INCLINATION":97.4969,"RA_OF_ASC_NODE":278.2065,"ARG_OF_PERICENTER":4.1604,"MEAN_ANOMALY":355.9685,"EPHEMERIS_TYPE":0,"NORAD_CAT_ID":44777,"ELEMENT_SET_NO":999,"REV_AT_EPOCH":36882,"BSTAR":0.0002421,"MEAN_MOTION_DOT":0.0000957,"MEAN_MOTION_DDOT":0},{"OBJECT_NAME":"JILIN-1 GAOFEN 2B","OBJECT_ID":"2019-086A","EPOCH":"2026-07-12T19:22:18.496128","CLASSIFICATION_TYPE":"U","MEAN_MOTION":15.20984208,"ECCENTRICITY":0.0013028,"INCLINATION":97.4878,"RA_OF_ASC_NODE":265.6403,"ARG_OF_PERICENTER":224.6898,"MEAN_ANOMALY":135.3288,"EPHEMERIS_TYPE":0,"NORAD_CAT_ID":44836,"ELEMENT_SET_NO":999,"REV_AT_EPOCH":36438,"BSTAR":0.00018258,"MEAN_MOTION_DOT":0.00003984,"MEAN_MOTION_DDOT":0},{"OBJECT_NAME":"JILIN-1 GAOFEN 3E","OBJECT_ID":"2020-065D","EPOCH":"2026-07-12T20:34:43.723200","CLASSIFICATION_TYPE":"U","MEAN_MOTION":15.66987764,"ECCENTRICITY":0.0010609,"INCLINATION":97.2217,"RA_OF_ASC_NODE":247.1163,"ARG_OF_PERICENTER":79.6569,"MEAN_ANOMALY":280.5888,"EPHEMERIS_TYPE":0,"NORAD_CAT_ID":46457,"ELEMENT_SET_NO":999,"REV_AT_EPOCH":32377,"BSTAR":0.00057523,"MEAN_MOTION_DOT":0.00061453,"MEAN_MOTION_DDOT":0},{"OBJECT_NAME":"JILIN-1 GAOFEN 3F","OBJECT_ID":"2020-065E","EPOCH":"2026-07-12T19:16:34.563648","CLASSIFICATION_TYPE":"U","MEAN_MOTION":15.63741863,"ECCENTRICITY":0.0011965,"INCLINATION":97.2176,"RA_OF_ASC_NODE":244.2648,"ARG_OF_PERICENTER":66.1197,"MEAN_ANOMALY":294.1315,"EPHEMERIS_TYPE":0,"NORAD_CAT_ID":46458,"ELEMENT_SET_NO":999,"REV_AT_EPOCH":32370,"BSTAR":0.00056692,"MEAN_MOTION_DOT":0.0005322,"MEAN_MOTION_DDOT":0},{"OBJECT_NAME":"JILIN-1 GAOFEN 3G","OBJECT_ID":"2020-065F","EPOCH":"2026-07-12T20:03:35.917632","CLASSIFICATION_TYPE":"U","MEAN_MOTION":15.76514543,"ECCENTRICITY":0.0005157,"INCLINATION":97.2237,"RA_OF_ASC_NODE":251.5725,"ARG_OF_PERICENTER":287.0506,"MEAN_ANOMALY":73.0195,"EPHEMERIS_TYPE":0,"NORAD_CAT_ID":46459,"ELEMENT_SET_NO":999,"REV_AT_EPOCH":32397,"BSTAR":0.00069471,"MEAN_MOTION_DOT":0.00111145,"MEAN_MOTION_DDOT":0},{"OBJECT_NAME":"JILIN-1 GAOFEN 3H","OBJECT_ID":"2020-065G","EPOCH":"2026-07-12T19:24:36.687744","CLASSIFICATION_TYPE":"U","MEAN_MOTION":15.71945564,"ECCENTRICITY":0.0006042,"INCLINATION":97.218,"RA_OF_ASC_NODE":247.6978,"ARG_OF_PERICENTER":210.7297,"MEAN_ANOMALY":149.3613,"EPHEMERIS_TYPE":0,"NORAD_CAT_ID":46460,"ELEMENT_SET_NO":999,"REV_AT_EPOCH":32390,"BSTAR":0.00065634,"MEAN_MOTION_DOT":0.00086076,"MEAN_MOTION_DDOT":0},{"OBJECT_NAME":"JILIN-1 GAOFEN 2D","OBJECT_ID":"2021-086A","EPOCH":"2026-07-12T19:01:15.130272","CLASSIFICATION_TYPE":"U","MEAN_MOTION":15.10855671,"ECCENTRICITY":0.0034232,"INCLINATION":97.6503,"RA_OF_ASC_NODE":316.4993,"ARG_OF_PERICENTER":58.6613,"MEAN_ANOMALY":301.796,"EPHEMERIS_TYPE":0,"NORAD_CAT_ID":49256,"ELEMENT_SET_NO":999,"REV_AT_EPOCH":26458,"BSTAR":0.00013541,"MEAN_MOTION_DOT":0.00002216,"MEAN_MOTION_DDOT":0},{"OBJECT_NAME":"JILIN-1 GAOFEN 2F","OBJECT_ID":"2021-097A","EPOCH":"2026-07-12T18:48:09.184032","CLASSIFICATION_TYPE":"U","MEAN_MOTION":15.07936166,"ECCENTRICITY":0.0019674,"INCLINATION":97.6722,"RA_OF_ASC_NODE":319.9259,"ARG_OF_PERICENTER":137.55,"MEAN_ANOMALY":222.7253,"EPHEMERIS_TYPE":0,"NORAD_CAT_ID":49338,"ELEMENT_SET_NO":999,"REV_AT_EPOCH":26017,"BSTAR":0.00014922,"MEAN_MOTION_DOT":0.00002236,"MEAN_MOTION_DDOT":0},{"OBJECT_NAME":"JILIN-1 GAOFEN 3D27","OBJECT_ID":"2022-048B","EPOCH":"2026-07-12T18:19:01.115040","CLASSIFICATION_TYPE":"U","MEAN_MOTION":15.82433629,"ECCENTRICITY":0.0005085,"INCLINATION":97.5731,"RA_OF_ASC_NODE":310.1552,"ARG_OF_PERICENTER":251.3604,"MEAN_ANOMALY":108.7112,"EPHEMERIS_TYPE":0,"NORAD_CAT_ID":52444,"ELEMENT_SET_NO":999,"REV_AT_EPOCH":23351,"BSTAR":0.00072256,"MEAN_MOTION_DOT":0.00151682,"MEAN_MOTION_DDOT":0},{"OBJECT_NAME":"JILIN-1 GAOFEN 3D28","OBJECT_ID":"2022-048C","EPOCH":"2026-07-12T16:49:54.287328","CLASSIFICATION_TYPE":"U","MEAN_MOTION":15.8721343,"ECCENTRICITY":0.0004854,"INCLINATION":97.5669,"RA_OF_ASC_NODE":310.3705,"ARG_OF_PERICENTER":248.1485,"MEAN_ANOMALY":111.927,"EPHEMERIS_TYPE":0,"NORAD_CAT_ID":52445,"ELEMENT_SET_NO":999,"REV_AT_EPOCH":23356,"BSTAR":0.0007437,"MEAN_MOTION_DOT":0.00196959,"MEAN_MOTION_DDOT":0},{"OBJECT_NAME":"JILIN-1 GAOFEN 3D29","OBJECT_ID":"2022-048D","EPOCH":"2026-07-12T17:57:46.338336","CLASSIFICATION_TYPE":"U","MEAN_MOTION":15.82631515,"ECCENTRICITY":0.0004256,"INCLINATION":97.5732,"RA_OF_ASC_NODE":310.5036,"ARG_OF_PERICENTER":232.6409,"MEAN_ANOMALY":127.4472,"EPHEMERIS_TYPE":0,"NORAD_CAT_ID":52446,"ELEMENT_SET_NO":999,"REV_AT_EPOCH":23353,"BSTAR":0.00073264,"MEAN_MOTION_DOT":0.00155246,"MEAN_MOTION_DDOT":0},{"OBJECT_NAME":"JILIN-1 GAOFEN 3D31","OBJECT_ID":"2022-048F","EPOCH":"2026-07-12T19:01:45.503328","CLASSIFICATION_TYPE":"U","MEAN_MOTION":15.92756772,"ECCENTRICITY":0.0005232,"INCLINATION":97.5687,"RA_OF_ASC_NODE":311.862,"ARG_OF_PERICENTER":241.454,"MEAN_ANOMALY":118.6207,"EPHEMERIS_TYPE":0,"NORAD_CAT_ID":52448,"ELEMENT_SET_NO":999,"REV_AT_EPOCH":23364,"BSTAR":0.00085758,"MEAN_MOTION_DOT":0.00293183,"MEAN_MOTION_DDOT":0.000034755},{"OBJECT_NAME":"JILIN-1 GAOFEN 03D09","OBJECT_ID":"2022-098B","EPOCH":"2026-07-12T20:41:33.591840","CLASSIFICATION_TYPE":"U","MEAN_MOTION":15.69996593,"ECCENTRICITY":0.0003322,"INCLINATION":97.5623,"RA_OF_ASC_NODE":325.5281,"ARG_OF_PERICENTER":241.2259,"MEAN_ANOMALY":118.8669,"EPHEMERIS_TYPE":0,"NORAD_CAT_ID":53445,"ELEMENT_SET_NO":999,"REV_AT_EPOCH":21865,"BSTAR":0.00055587,"MEAN_MOTION_DOT":0.00066998,"MEAN_MOTION_DDOT":0},{"OBJECT_NAME":"JILIN-1 GAOFEN 03D43","OBJECT_ID":"2022-098E","EPOCH":"2026-07-12T20:14:56.535360","CLASSIFICATION_TYPE":"U","MEAN_MOTION":15.73686048,"ECCENTRICITY":0.0003512,"INCLINATION":97.5605,"RA_OF_ASC_NODE":326.6553,"ARG_OF_PERICENTER":235.5569,"MEAN_ANOMALY":124.5363,"EPHEMERIS_TYPE":0,"NORAD_CAT_ID":53448,"ELEMENT_SET_NO":999,"REV_AT_EPOCH":21872,"BSTAR":0.00061525,"MEAN_MOTION_DOT":0.00086805,"MEAN_MOTION_DDOT":0},{"OBJECT_NAME":"JILIN-1 GAOFEN 03D08","OBJECT_ID":"2022-155A","EPOCH":"2026-07-12T20:28:23.284128","CLASSIFICATION_TYPE":"U","MEAN_MOTION":15.6734691,"ECCENTRICITY":0.0004163,"INCLINATION":97.6226,"RA_OF_ASC_NODE":341.3616,"ARG_OF_PERICENTER":236.1736,"MEAN_ANOMALY":123.9128,"EPHEMERIS_TYPE":0,"NORAD_CAT_ID":54251,"ELEMENT_SET_NO":999,"REV_AT_EPOCH":20383,"BSTAR":0.00047253,"MEAN_MOTION_DOT":0.00051002,"MEAN_MOTION_DDOT":0}]}
