JILIN-1 GAOFEN 3A       
1 44312U 19032C   26193.50020398  .00005515  00000+0  17833-3 0  9997
2 44312  44.9729 217.5664 0004691  84.2828 275.8592 15.33155930391729
JILIN-1 GAOFEN 2A       
1 44777U 19075A   26193.80693730  .00009570  00000+0  24210-3 0  9990
2 44777  97.4969 278.2065 0005419   4.1604 355.9685 15.39974702368824
JILIN-1 GAOFEN 2B       
1 44836U 19086A   26193.80715852  .00003984  00000+0  18258-3 0  9996
2 44836  97.4878 265.6403 0013028 224.6898 135.3288 15.20984208364382
JILIN-1 GAOFEN 3E       
1 46457U 20065D   26193.85745050  .00061453  00000+0  57523-3 0  9997
2 46457  97.2217 247.1163 0010609  79.6569 280.5888 15.66987764323778
JILIN-1 GAOFEN 3F       
1 46458U 20065E   26193.80317782  .00053220  00000+0  56692-3 0  9999
2 46458  97.2176 244.2648 0011965  66.1197 294.1315 15.63741863323707
JILIN-1 GAOFEN 3G       
1 46459U 20065F   26193.83583238  .00111145  00000+0  69471-3 0  9994
2 46459  97.2237 251.5725 0005157 287.0506  73.0195 15.76514543323973
JILIN-1 GAOFEN 3H       
1 46460U 20065G   26193.80875796  .00086076  00000+0  65634-3 0  9997
2 46460  97.2180 247.6978 0006042 210.7297 149.3613 15.71945564323903
JILIN-1 GAOFEN 2D       
1 49256U 21086A   26193.79253623  .00002216  00000+0  13541-3 0  9998
2 49256  97.6503 316.4993 0034232  58.6613 301.7960 15.10855671264586
JILIN-1 GAOFEN 2F       
1 49338U 21097A   26193.78343963  .00002236  00000+0  14922-3 0  9993
2 49338  97.6722 319.9259 0019674 137.5500 222.7253 15.07936166260171
JILIN-1 GAOFEN 3D27     
1 52444U 22048B   26193.76320735  .00151682  00000+0  72256-3 0  9996
2 52444  97.5731 310.1552 0005085 251.3604 108.7112 15.82433629233516
JILIN-1 GAOFEN 3D28     
1 52445U 22048C   26193.70132277  .00196959  00000+0  74370-3 0  9998
2 52445  97.5669 310.3705 0004854 248.1485 111.9270 15.87213430233560
JILIN-1 GAOFEN 3D29     
1 52446U 22048D   26193.74845299  .00155246  00000+0  73264-3 0  9993
2 52446  97.5732 310.5036 0004256 232.6409 127.4472 15.82631515233537
JILIN-1 GAOFEN 3D31     
1 52448U 22048F   26193.79288777  .00293183  34755-4  85758-3 0  9995
2 52448  97.5687 311.8620 0005232 241.4540 118.6207 15.92756772233644
JILIN-1 GAOFEN 03D09    
1 53445U 22098B   26193.86219435  .00066998  00000+0  55587-3 0  9991
2 53445  97.5623 325.5281 0003322 241.2259 118.8669 15.69996593218659
JILIN-1 GAOFEN 03D43    
1 53448U 22098E   26193.84370990  .00086805  00000+0  61525-3 0  9994
2 53448  97.5605 326.6553 0003512 235.5569 124.5363 15.73686048218726
JILIN-1 GAOFEN 03D08    
1 54251U 22155A   26193.85304727  .00051002  00000+0  47253-3 0  9990
2 54251  97.6226 341.3616 0004163 236.1736 123.9128 15.67346910203831
